LEMUR-2-JPGSQUARED      
1 44855U 19089D   23081.50247863  .00022432  00000+0  13710-2 0  9998
2 44855  36.9632 240.2581 0007683 349.4456  10.6126 15.09513405179925
LEMUR-2-HIMOMANDDAD     
1 44860U 19089J   23080.51098267  .00022759  00000+0  13937-2 0  9999
2 44860  36.9638 248.0551 0007925 338.8874  21.1543 15.09436133179635
LEMUR-2-PAPPY           
1 44861U 19089K   23081.13668835  .00020779  00000+0  13071-2 0  9992
2 44861  36.9634 244.7049 0007478 338.0117  22.0306 15.08483559179788
LEMUR-2-THEODOSIA       
1 44863U 19089M   23080.48528470  .00021494  00000+0  13082-2 0  9998
2 44863  36.9616 246.8788 0008127 342.5227  17.5237 15.09671898179617
LEMUR-2-ETHANOAKES      
1 46298U 20061AC  23081.16215998  .00049449  00000+0  17000-2 0  9992
2 46298  97.4166 154.3131 0001436 190.1526 169.9685 15.29925816140737
LEMUR-2-OSCARLATOR      
1 46299U 20061AD  23081.21391390  .00062663  00000+0  19843-2 0  9990
2 46299  97.4170 154.7560 0001420 208.9319 151.1844 15.32513390140794
LEMUR-2-SCHMIDTFALL     
1 46315U 20061AV  23081.19507240  .00062328  00000+0  19339-2 0  9997
2 46315  97.4181 155.4555 0002327 213.1858 146.9239 15.33164908140877
LEMUR-2-DJUPROERA       
1 46316U 20061AW  23081.43714019  .00079691  00000+0  22953-2 0  9996
2 46316  97.4167 156.1228 0002599 220.7974 139.3075 15.35440709140941
LEMUR-2-SQUAREJAWS      
1 46317U 20061AX  23081.20347454  .00067359  00000+0  20130-2 0  9990
2 46317  97.4175 155.6965 0002412 218.6865 141.4205 15.34334145140902
LEMUR-2-URSA-AVION      
1 46318U 20061AY  23081.42333156  .00071522  00000+0  21623-2 0  9994
2 46318  97.4173 155.8495 0002477 219.0812 141.0252 15.33947295140935
LEMUR-2-SLICERS         
1 46500U 20068Q   23080.83731627  .00029415  00000+0  16705-2 0  9992
2 46500  97.7482  28.2049 0013622  73.9646 286.3078 15.12795939135912
LEMUR-2-DAYWZAGOODDAY   
1 46501U 20068R   23080.66364591  .00024067  00000+0  13699-2 0  9993
2 46501  97.7473  28.3507 0014087  69.3972 290.8753 15.12752034135896
LEMUR-2-SUSURRUS        
1 46502U 20068S   23080.83808941  .00024755  00000+0  14098-2 0  9993
2 46502  97.7489  28.2026 0013438  80.3333 279.9414 15.12736452135913
LEMUR-2-NICHOL          
1 46503U 20068T   23080.82095013  .00024287  00000+0  14060-2 0  9990
2 46503  97.7475  28.0832 0013754  79.9017 280.3737 15.12146382135906
LEMUR-2-OZARAK          
1 46908U 20081D   23080.24297481  .00022027  00000+0  14174-2 0  9999
2 46908  36.9135  15.1824 0007014 209.6091 150.4256 15.07634736129856
LEMUR-2-JINDRA          
1 46909U 20081E   23080.09743310  .00026469  00000+0  16383-2 0  9998
2 46909  36.9138  13.1068 0007371 217.3066 142.7108 15.09010131129873
LEMUR-2-WALLACE         
1 46910U 20081F   23081.08960327  .00024181  00000+0  15200-2 0  9995
2 46910  36.9137   8.0581 0007633 220.2775 139.7407 15.08465098130008
LEMUR-2-JEREMIAH        
1 46911U 20081G   23081.16939077  .00021803  00000+0  13901-2 0  9997
2 46911  36.9147   7.8143 0007001 230.4000 129.6139 15.07975672130029
LEMUR-2-NEVA            
1 47450U 21006AP  23081.40734895  .00037064  00000+0  13798-2 0  9992
2 47450  97.4068 142.2453 0007888  40.2167 319.9654 15.27357106119542
LEMUR-2-SAOIRSEDH5GUO   
1 47453U 21006AS  23080.40880483  .00040275  00000+0  14416-2 0  9995
2 47453  97.4087 141.5577 0006807  44.0067 316.1713 15.28638755119397
LEMUR-2-NALLYWACKER     
1 47457U 21006AW  23080.89505578  .00040508  00000+0  14404-2 0  9997
2 47457  97.4061 142.0102 0007535  38.3955 321.7819 15.28848622119489
LEMUR-2-MANGO1          
1 47493U 21006CJ  23081.17439644  .00026793  00000+0  10950-2 0  9991
2 47493  97.4020 140.4795 0007768  43.3935 316.7913 15.24314077119449
LEMUR-2-RUAIRI-EILIDH   
1 47511U 21006DC  23081.18378820  .00034035  00000+0  13329-2 0  9992
2 47511  97.4000 140.2512 0005992  50.2726 309.9039 15.25704063119436
LEMUR-2-JENNIFERSONG    
1 47525U 21006DR  23080.17366685  .00044069  00000+0  15669-2 0  9998
2 47525  97.4021 140.8481 0007618  41.2022 318.9792 15.28831007119372
LEMUR-2-CHANTAL         
1 47529U 21006DV  23081.15623955  .00034022  00000+0  13615-2 0  9994
2 47529  97.3988 139.7921 0005489  57.4848 302.6920 15.24983082120352
LEMUR-2-NOOBNOOB        
1 47538U 21006DY  23080.91537998  .00037518  00000+0  14101-2 0  9992
2 47538  97.4049 141.5025 0007366  41.5832 318.5966 15.27041865119441
LEMUR-2-AMANDA-SVANTE   
1 48269U 21034B   23081.15395949  .00008475  00000+0  87523-3 0  9999
2 48269  97.7152 150.8139 0002798 209.5190 150.5871 14.90394415102843
LEMUR-2-SPECIAL-K       
1 48273U 21034F   23081.15838613  .00009681  00000+0  99284-3 0  9991
2 48273  97.7149 150.8032 0002882 210.5667 149.5383 14.90634700102852
LEMUR-2-JACKSON         
1 48885U 21059G   23081.26458071  .00049611  00000+0  17486-2 0  9995
2 48885  97.5742 217.0835 0008644 214.5865 145.4814 15.29079675 96168
LEMUR-2-ANNABANANA      
1 48923U 21059AW  23080.86282992  .00055350  00000+0  18019-2 0  9990
2 48923  97.5686 217.4349 0009572 199.8154 160.2716 15.31619747 96180
LEMUR-2-JOHN-TREIRES    
1 48925U 21059AY  23081.35295340  .00063644  00000+0  19423-2 0  9993
2 48925  97.5832 219.1530 0012185 202.3504 157.7208 15.33618100 96304
LEMUR-2-AC-CUBED        
1 48927U 21059BA  23080.92321842  .00046987  00000+0  16008-2 0  9991
2 48927  97.5804 217.9916 0013939 206.3664 153.6869 15.30143510 96200
LEMUR-2-MERIMA          
1 48929U 21059BC  23081.34626487  .00053593  00000+0  17189-2 0  9995
2 48929  97.5687 218.6450 0013387 207.2702 152.7838 15.32064980 96304
LEMUR-2-CARLSANTAMARI   
1 48959U 21059CJ  23081.17575955  .00113184  00000+0  26843-2 0  9992
2 48959  97.5784 220.4978 0012221 211.6644 148.3868 15.41222129 96395
LEMUR-2-RAMONAMAE       
1 51021U 22002AP  23081.16604191  .00041106  00000+0  15911-2 0  9997
2 51021  97.4514 150.1630 0008226 179.6979 180.4266 15.26036972 65574
LEMUR-2-KING-JULIEN     
1 51022U 22002AQ  23081.40416048  .00041552  00000+0  16313-2 0  9999
2 51022  97.4493 150.1821 0008192 177.4507 182.6774 15.25561585 65602
LEMUR-2-ROHOVITHSA      
1 51036U 22002BE  23081.17625206  .00021746  00000+0  98981-3 0  9991
2 51036  97.4516 149.1211 0008857 183.7945 176.3225 15.20683124 65507
LEMUR-2-MIRIWARI        
1 51054U 22002BY  23081.17255706  .00019491  00000+0  87662-3 0  9993
2 51054  97.4499 149.0798 0008039 179.8646 180.2593 15.21124561 65500
LEMUR-2-DJIRANG         
1 51058U 22002CC  23081.43648642  .00030989  00000+0  13881-2 0  9997
2 51058  97.4474 149.2227 0007815 178.5441 181.5819 15.21166651 65541
LEMUR-2-KRYWE           
1 51100U 22003G   23080.92938357  .00129422  00000+0  11267-2 0  9991
2 51100  44.9762 314.2529 0010278 206.2779 153.7599 15.67866658 66489
LEMUR-2-TENNYSONLILY    
1 52732U 22057A   23080.82587236  .00039498  00000+0  17027-2 0  9990
2 52732  97.5386 197.9742 0007003 296.6417  63.4101 15.22427783 45435
LEMUR-2-VANDENDRIES     
1 52733U 22057B   23081.30262983  .00019131  00000+0  91437-3 0  9994
2 52733  97.5246 197.8046 0005579 302.6507  57.4189 15.19045361 45490
LEMUR-2-KAREN B         
1 52736U 22057E   23080.81031822  .00042960  00000+0  18137-2 0  9999
2 52736  97.5247 197.6347 0006351 283.8633  76.1896 15.23119173 45441
LEMUR-2-HANCOM-1        
1 52740U 22057J   23081.29853806  .00028662  00000+0  13272-2 0  9999
2 52740  97.5427 198.5184 0008374 295.7989  64.2381 15.20038438 45491
LEMUR-2-MIMI1307        
1 52769U 22057AP  23080.83931804  .00009880  00000+0  46958-3 0  9993
2 52769  97.5423 198.4538 0011272 271.5241  88.4702 15.19360043 45453
LEMUR-2-PHILARI         
1 55013U 23001E   23081.15669973  .00023493  00000+0  12516-2 0  9997
2 55013  97.4867 141.9766 0007984 317.2714  42.7897 15.15174710 11881
LEMUR-2-DISCLAIMER      
1 55014U 23001F   23081.41551420  .00021830  00000+0  11589-2 0  9996
2 55014  97.4900 142.2838 0009379 322.6428  37.4151 15.15306665 11921
LEMUR-2-STEVEALBERS     
1 55017U 23001J   23081.15746262  .00021469  00000+0  11505-2 0  9996
2 55017  97.4853 141.9615 0008454 319.8562  40.2044 15.14983632 11882
LEMUR-2-EMMACULATE      
1 55037U 23001AE  23080.87758718  .00023813  00000+0  12050-2 0  9996
2 55037  97.4925 141.9483 0013713 306.1799  53.8165 15.16936091 11852
LEMUR-2-MMOLO           
1 55038U 23001AF  23081.39775218  .00027317  00000+0  13700-2 0  9995
2 55038  97.4936 142.4950 0013982 307.2918  52.7040 15.17216547 11930
LEMUR-2-FUENTETAJA-01   
1 55088U 23001CH  23080.88975806  .00021809  00000+0  11208-2 0  9999
2 55088  97.4951 141.9576 0013807 308.4818  51.5176 15.16409172 11853
